[{"OBJECT_NAME":"STARLINK-3332","OBJECT_ID":"2022-001Y","EPOCH":"2026-03-09T17:55:31.221696","MEAN_MOTION":15.08846097,"ECCENTRICITY":0.00011514,"INCLINATION":53.2155,"RA_OF_ASC_NODE":168.8647,"ARG_OF_PERICENTER":80.4473,"MEAN_ANOMALY":279.6649,"EPHEMERIS_TYPE":0,"CLASSIFICATION_TYPE":"U","NORAD_CAT_ID":50825,"ELEMENT_SET_NO":999,"REV_AT_EPOCH":23041,"BSTAR":-2.9360933e-5,"MEAN_MOTION_DOT":-7.55e-6,"MEAN_MOTION_DDOT":0},{"OBJECT_NAME":"FENGYUN 1C DEB","OBJECT_ID":"1999-025AXR","EPOCH":"2026-03-07T20:57:39.857472","MEAN_MOTION":14.72454359,"ECCENTRICITY":0.01891694,"INCLINATION":99.3486,"RA_OF_ASC_NODE":300.9473,"ARG_OF_PERICENTER":18.7054,"MEAN_ANOMALY":342.0979,"EPHEMERIS_TYPE":0,"CLASSIFICATION_TYPE":"U","NORAD_CAT_ID":30879,"ELEMENT_SET_NO":999,"REV_AT_EPOCH":63190,"BSTAR":0.0050043655,"MEAN_MOTION_DOT":0.00042311,"MEAN_MOTION_DDOT":0}]
